GLOBALSTAR M069         
1 31573U 07020C   26204.23857084 -.00000062  00000+0  28084-3 0  9992
2 31573  52.0020 150.0854 0001471 228.3389 277.9110 12.23472604883211
GLOBALSTAR M072         
1 31574U 07020D   26204.22863286 -.00000084  00000+0  35430-5 0  9992
2 31574  51.9954   4.2932 0001636  49.9640 121.0387 11.91658762879274
GLOBALSTAR M066         
1 32265U 07048C   26203.32694402 -.00000025  00000+0  59145-3 0  9994
2 32265  51.9610 317.0380 0005480 116.3209 278.9500 12.30390412864557
GLOBALSTAR M079         
1 37188U 10054A   26203.76436852 -.00000099  00000+0  26196-4 0  9997
2 37188  52.0059   0.3677 0001113  89.9803 309.6942 12.62266424727044
GLOBALSTAR M074         
1 37189U 10054B   26203.70807359 -.00000103  00000+0  61618-5 0  9991
2 37189  52.0038 359.7991 0000833 104.9572 278.6412 12.62262042727646
GLOBALSTAR M076         
1 37190U 10054C   26203.84446869 -.00000081  00000+0  12609-3 0  9992
2 37190  52.0053 359.5904 0001080 102.3636  61.2519 12.62262687727374
GLOBALSTAR M077         
1 37191U 10054D   26204.10514396 -.00000089  00000+0 -19578-3 0  9995
2 37191  51.9963  88.1305 0002148 239.9139 289.0346 11.67547147725337
GLOBALSTAR M075         
1 37192U 10054E   26204.25537568 -.00000104  00000+0 -26834-5 0  9991
2 37192  51.9957  40.3727 0000798  76.1708  96.2621 12.62267910726496
GLOBALSTAR M073         
1 37193U 10054F   26204.30303903 -.00000099  00000+0  26151-4 0  9995
2 37193  52.0079 314.3577 0000959 109.0082 278.3995 12.62266988728494
GLOBALSTAR M083         
1 37739U 11033A   26204.15743331 -.00000091  00000+0  73344-4 0  9993
2 37739  51.9852 262.9816 0000690 113.6176 272.9985 12.62258606697490
GLOBALSTAR M088         
1 37740U 11033B   26204.31993882 -.00000088  00000+0  86538-4 0  9996
2 37740  52.0195 168.9984 0000198  33.4122 130.8600 12.62269562693055
GLOBALSTAR M091         
1 37741U 11033C   26204.16909560 -.00000101  00000+0  15489-4 0  9993
2 37741  51.9992 132.3705 0000608  37.5082 101.4618 12.62264327693823
GLOBALSTAR M085         
1 37742U 11033D   26204.16302024 -.00000103  00000+0  71065-5 0  9991
2 37742  52.0129  83.7129 0000920  55.3823 115.9644 12.62264550694339
GLOBALSTAR M081         
1 37743U 11033E   26204.10873904 -.00000101  00000+0  15744-4 0  9995
2 37743  51.9961  86.2730 0000787  65.9975  98.4661 12.62265450694473
GLOBALSTAR M089         
1 37744U 11033F   26204.07110159 -.00000099  00000+0  29140-4 0  9999
2 37744  51.9941  40.5389 0000725  99.3141  75.2064 12.62267686695310
GLOBALSTAR M084         
1 38040U 11080A   26204.20611093 -.00000091  00000+0  72402-4 0  9990
2 38040  52.0003 267.6306 0000652 144.7634 223.2491 12.62263744673319
